[Satellite]
VERSION=1.1
NAME=GALAXY 12 (G-12)
NICKNAME=GALAXY 12 (G-12)
TLE1=1 27715U 03013B   15054.53309419  .00000033  00000-0  10000-3 0  9998
TLE2=2 27715   0.0588 264.6469 0000983  50.5572 260.7687  1.00272126 43572
